NORAD_CAT_ID,OBJECT_NAME,OBJECT_TYPE,EPOCH,MEAN_MOTION,ECCENTRICITY,INCLINATION,RA_OF_ASC_NODE,ARG_OF_PERICENTER,MEAN_ANOMALY,BSTAR,MEAN_MOTION_DOT,MEAN_MOTION_DDOT,TLE_LINE0,TLE_LINE1,TLE_LINE2,SEMIMAJOR_AXIS,PERIOD,APOGEE,PERIGEE,DECAYED
51731.0,STARLINK-3514,PAYLOAD,2022-12-22 05:38:25,15.08841434,0.0002826,53.2154,186.9696,45.0593,315.0628,8.189699999999999e-05,1.015e-05,0.0,0 STARLINK-3514,1 51731U 22016T   22356.23501584  .00001015  00000-0  81897-4 0  9998,2 51731  53.2154 186.9696 0002826  45.0593 315.0628 15.08841434 46416,6917.876,95.437,541.696,537.786,0.0
51731.0,STARLINK-3514,PAYLOAD,2022-12-22 16:46:07,15.08840943,0.0002786,53.2155,184.8881,46.0245,314.0976,0.00014752,2.060000000000001e-05,0.0,0 STARLINK-3514,1 51731U 22016T   22356.69869493  .00002060  00000-0  14752-3 0  9990,2 51731  53.2155 184.8881 0002786  46.0245 314.0976 15.08840943 47599,6917.878000000002,95.437,541.67,537.815,0.0
51731.0,STARLINK-3514,PAYLOAD,2022-12-23 05:29:12,15.08844324,0.0002831,53.2157,182.5092,46.6856,313.4372,0.00013278,1.826e-05,0.0,0 STARLINK-3514,1 51731U 22016T   22357.22861234  .00001826  00000-0  13278-3 0  9996,2 51731  53.2157 182.5092 0002831  46.6856 313.4372 15.08844324 46561,6917.8669999999975,95.437,541.691,537.774,0.0
51731.0,STARLINK-3514,PAYLOAD,2022-12-23 15:01:31,15.08832376,0.0002851,53.2154,180.725,48.0335,312.0899,-8.5203e-06,-4.24e-06,0.0,0 STARLINK-3514,1 51731U 22016T   22357.62606383 -.00000424  00000-0 -85203-5 0  9996,2 51731  53.2154 180.7250 0002851  48.0335 312.0899 15.08832376 46624,6917.904,95.438,541.741,537.7959999999998,0.0
51731.0,STARLINK-3514,PAYLOAD,2022-12-23 21:23:04,15.08836266,0.0002822,53.2153,179.5357,48.7069,311.4165,6.8661e-06,-1.79e-06,0.0,0 STARLINK-3514,1 51731U 22016T   22357.89102172 -.00000179  00000-0  68661-5 0  9997,2 51731  53.2153 179.5357 0002822  48.7069 311.4165 15.08836266 47774,6917.892,95.438,541.7090000000002,537.805,0.0
51731.0,STARLINK-3514,PAYLOAD,2022-12-24 11:41:32,15.08841244,0.0002814,53.2153,176.8598,48.4749,311.6485,1.7331e-05,-1.3e-07,0.0,0 STARLINK-3514,1 51731U 22016T   22358.48717798 -.00000013  00000-0  17331-4 0  9993,2 51731  53.2153 176.8598 0002814  48.4749 311.6485 15.08841244 46750,6917.877,95.437,541.688,537.795,0.0
51731.0,STARLINK-3514,PAYLOAD,2022-12-24 21:13:50,15.08843953,0.0002891,53.2156,175.0749,48.3076,311.8164,-9.1654e-06,-4.35e-06,0.0,0 STARLINK-3514,1 51731U 22016T   22358.88461669 -.00000435  00000-0 -91654-5 0  9990,2 51731  53.2156 175.0749 0002891  48.3076 311.8164 15.08843953 47924,6917.868,95.437,541.7330000000002,537.7330000000002,0.0
51731.0,STARLINK-3514,PAYLOAD,2022-12-25 11:32:18,15.08838573,0.0002785,53.2156,172.3983,49.761,310.3625,0.0001118,1.491e-05,0.0,0 STARLINK-3514,1 51731U 22016T   22359.48077515  .00001491  00000-0  11180-3 0  9995,2 51731  53.2156 172.3983 0002785  49.7610 310.3625 15.08838573 46900,6917.885,95.438,541.6759999999998,537.823,0.0
51731.0,STARLINK-3514,PAYLOAD,2022-12-25 21:04:37,15.08842441,0.0002809,53.2155,170.6141,50.7066,309.4175,0.00011397,1.526e-05,0.0,0 STARLINK-3514,1 51731U 22016T   22359.87821240  .00001526  00000-0  11397-3 0  9999,2 51731  53.2155 170.6141 0002809  50.7066 309.4175 15.08842441 46964,6917.873000000001,95.437,541.681,537.795,0.0
51731.0,STARLINK-3514,PAYLOAD,2022-12-26 11:23:05,15.08845279,0.0002875,53.2157,167.938,52.2446,307.8807,8.3023e-05,1.033e-05,0.0,0 STARLINK-3514,1 51731U 22016T   22360.47437119  .00001033  00000-0  83023-4 0  9994,2 51731  53.2157 167.9380 0002875  52.2446 307.8807 15.08845279 47059,6917.864000000001,95.437,541.7180000000002,537.74,0.0
51731.0,STARLINK-3514,PAYLOAD,2022-12-26 20:55:24,15.08839233,0.0002894,53.216,166.1538,52.6924,307.4331,2.187e-05,5.9e-07,0.0,0 STARLINK-3514,1 51731U 22016T   22360.87181644  .00000059  00000-0  21870-4 0  9996,2 51731  53.2160 166.1538 0002894  52.6924 307.4331 15.08839233 48226,6917.8830000000025,95.438,541.75,537.746,0.0
51731.0,STARLINK-3514,PAYLOAD,2022-12-27 17:35:24,15.08848691,0.0002947,53.2166,162.2881,54.1339,305.9926,6.9828e-05,8.23e-06,0.0,0 STARLINK-3514,1 51731U 22016T   22361.73292653  .00000823  00000-0  69828-4 0  9999,2 51731  53.2166 162.2881 0002947  54.1339 305.9926 15.08848691 47248,6917.854,95.437,541.758,537.68,0.0
51731.0,STARLINK-3514,PAYLOAD,2022-12-27 20:46:10,15.08851613,0.0002956,53.2168,161.6933,54.3798,305.7469,5.7194e-05,6.22e-06,0.0,0 STARLINK-3514,1 51731U 22016T   22361.86540453  .00000622  00000-0  57194-4 0  9997,2 51731  53.2168 161.6933 0002956  54.3798 305.7469 15.08851613 48375,6917.845,95.437,541.755,537.665,0.0
51731.0,STARLINK-3514,PAYLOAD,2022-12-28 11:04:39,15.08848663,0.000287,53.2158,159.0166,52.6504,307.4749,-5.1853e-06,-3.71e-06,0.0,0 STARLINK-3514,1 51731U 22016T   22362.46156448 -.00000371  00000-0 -51853-5 0  9991,2 51731  53.2158 159.0166 0002870  52.6504 307.4749 15.08848663 47352,6917.854,95.437,541.7040000000002,537.7330000000002,0.0
51731.0,STARLINK-3514,PAYLOAD,2022-12-28 20:36:57,15.08851121,0.0002874,53.2156,157.2323,57.6011,302.5258,-3.2447e-05,-8.05e-06,0.0,0 STARLINK-3514,1 51731U 22016T   22362.85900187 -.00000805  00000-0 -32447-4 0  9990,2 51731  53.2156 157.2323 0002874  57.6011 302.5258 15.08851121 47418,6917.846,95.437,541.7,537.7230000000002,0.0
51731.0,STARLINK-3514,PAYLOAD,2022-12-29 02:58:31,15.0883118,0.0003746,53.2157,156.0424,56.2051,303.9298,-9.5378e-06,-4.41e-06,0.0,0 STARLINK-3514,1 51731U 22016T   22363.12397932 -.00000441  00000-0 -95378-5 0  9998,2 51731  53.2157 156.0424 0003746  56.2051 303.9298 15.08831180 48565,6917.906999999997,95.438,542.364,537.181,0.0
51731.0,STARLINK-3514,PAYLOAD,2022-12-29 10:55:27,15.08836335,0.0002756,53.2154,154.5556,50.6713,309.4523,-5.4889e-05,-1.162e-05,0.0,0 STARLINK-3514,1 51731U 22016T   22363.45517423 -.00001162  00000-0 -54889-4 0  9995,2 51731  53.2154 154.5556 0002756  50.6713 309.4523 15.08836335 48619,6917.892,95.438,541.663,537.85,0.0
51731.0,STARLINK-3514,PAYLOAD,2022-12-30 10:46:14,15.08829065,0.0002785,53.2164,150.0968,49.0573,311.0659,-5.2636e-05,-1.126e-05,0.0,0 STARLINK-3514,1 51731U 22016T   22364.44878209 -.00001126  00000-0 -52636-4 0  9995,2 51731  53.2164 150.0968 0002785  49.0573 311.0659 15.08829065 47650,6917.9140000000025,95.438,541.705,537.852,0.0
51731.0,STARLINK-3514,PAYLOAD,2022-12-30 20:18:32,15.088439,0.0002804,53.2162,148.3123,50.4644,309.6596,8.3419e-05,1.039e-05,0.0,0 STARLINK-3514,1 51731U 22016T   22364.84621142  .00001039  00000-0  83419-4 0  9995,2 51731  53.2162 148.3123 0002804  50.4644 309.6596 15.08843900 48825,6917.868,95.437,541.673,537.794,0.0
51731.0,STARLINK-3514,PAYLOAD,2022-12-31 02:40:04,15.08848606,0.0002643,53.2163,147.123,54.6383,305.4855,0.00012215,1.657e-05,0.0,0 STARLINK-3514,1 51731U 22016T   22365.11116719  .00001657  00000-0  12215-3 0  9996,2 51731  53.2163 147.1230 0002643  54.6383 305.4855 15.08848606 47750,6917.854,95.437,541.547,537.891,0.0
51731.0,STARLINK-3514,PAYLOAD,2022-12-31 18:33:56,15.08849306,0.0002522,53.2146,144.1476,46.9791,313.1412,0.00022378,3.276e-05,0.0,0 STARLINK-3514,1 51731U 22016T   22365.77356570  .00003276  00000-0  22378-3 0  9999,2 51731  53.2146 144.1476 0002522  46.9791 313.1412 15.08849306 47857,6917.852,95.437,541.462,537.972,0.0
51731.0,STARLINK-3514,PAYLOAD,2023-01-01 08:52:24,15.08842623,0.0003232,53.2145,141.4753,52.0659,308.0625,0.0001107999999999,1.475e-05,0.0,0 STARLINK-3514,1 51731U 22016T   23001.36973093  .00001475  00000-0  11080-3 0  9994,2 51731  53.2145 141.4753 0003232  52.0659 308.0625 15.08842623 49052,6917.871999999999,95.437,541.9730000000002,537.502,0.0
51731.0,STARLINK-3514,PAYLOAD,2023-01-01 15:13:57,15.08829766,0.0002403,53.2151,140.2823,48.2326,311.8871,-0.00019624,-3.409e-05,0.0,0 STARLINK-3514,1 51731U 22016T   23001.63469472 -.00003409  00000-0 -19624-3 0  9998,2 51731  53.2151 140.2823 0002403  48.2326 311.8871 15.08829766 49093,6917.9119999999975,95.438,541.439,538.114,0.0
51731.0,STARLINK-3514,PAYLOAD,2023-01-01 16:49:20,15.08834335,0.00026,53.2151,139.9853,50.5701,309.5521,-8.9715e-05,-1.716e-05,0.0,0 STARLINK-3514,1 51731U 22016T   23001.70093410 -.00001716  00000-0 -89715-4 0  9999,2 51731  53.2151 139.9853 0002600  50.5701 309.5521 15.08834335 47994,6917.898,95.438,541.561,537.964,0.0
51731.0,STARLINK-3514,PAYLOAD,2023-01-02 03:57:02,15.08844065,0.0002455,53.2143,137.9032,49.7249,310.3958,0.00024267,3.576e-05,0.0,0 STARLINK-3514,1 51731U 22016T   23002.16461150  .00003576  00000-0  24267-3 0  9994,2 51731  53.2143 137.9032 0002455  49.7249 310.3958 15.08844065 49174,6917.868,95.437,541.431,538.035,0.0
51731.0,STARLINK-3514,PAYLOAD,2023-01-02 15:04:44,15.08839904,0.0002612,53.2148,135.8222,46.6478,313.4732,0.00044435,6.791e-05,0.0,0 STARLINK-3514,1 51731U 22016T   23002.62829593  .00006791  00000-0  44435-3 0  9995,2 51731  53.2148 135.8222 0002612  46.6478 313.4732 15.08839904 49240,6917.880999999999,95.438,541.553,537.939,0.0
51731.0,STARLINK-3514,PAYLOAD,2023-01-02 18:15:31,15.08839717,0.000263,53.2151,135.2276,47.1637,312.9576,0.00038996,5.923e-05,0.0,0 STARLINK-3514,1 51731U 22016T   23002.76077647  .00005923  00000-0  38996-3 0  9996,2 51731  53.2151 135.2276 0002630  47.1637 312.9576 15.08839717 48151,6917.880999999999,95.438,541.566,537.927,0.0
51731.0,STARLINK-3514,PAYLOAD,2023-01-03 08:33:59,15.08841153,0.0002699,53.214,132.5511,51.8049,308.3186,0.00031637,4.751e-05,0.0,0 STARLINK-3514,1 51731U 22016T   23003.35693825  .00004751  00000-0  31637-3 0  9997,2 51731  53.2140 132.5511 0002699  51.8049 308.3186 15.08841153 48248,6917.877,95.437,541.609,537.875,0.0
51731.0,STARLINK-3514,PAYLOAD,2023-01-03 14:55:32,15.08839742,0.0002695,53.2143,131.3618,51.3547,308.7686,0.00021892,3.197e-05,0.0,0 STARLINK-3514,1 51731U 22016T   23003.62189860  .00003197  00000-0  21892-3 0  9991,2 51731  53.2143 131.3618 0002695  51.3547 308.7686 15.08839742 49397,6917.880999999999,95.438,541.611,537.882,0.0
